{
  "type": "FeatureCollection",
  "features": [
    {
      "type": "Feature",
      "properties": {
        "norad_id": 36828,
        "name": "BEIDOU-2 IGSO-1 (C06)",
        "group": "beidou",
        "lat": -52.70721507870145,
        "lon": 55.54662733679085,
        "alt_km": 35630.45747119945,
        "timestamp": "2025-12-23T14:49:09.655748+00:00",
        "meta_object_name": "BEIDOU-2 IGSO-1 (C06)",
        "meta_object_id": "2010-036A",
        "meta_epoch": "2025-12-20T21:47:26.739168",
        "meta_mean_motion": 1.00282395,
        "meta_eccentricity": 0.0051798,
        "meta_inclination": 54.2882,
        "meta_ra_of_asc_node": 164.5739,
        "meta_arg_of_pericenter": 215.2932,
        "meta_mean_anomaly": 144.6604,
        "meta_ephemeris_type": 0,
        "meta_classification_type": "U",
        "meta_norad_cat_id": 36828,
        "meta_element_set_no": 999,
        "meta_rev_at_epoch": 5631,
        "meta_bstar": 0,
        "meta_mean_motion_dot": -5.5e-07,
        "meta_mean_motion_ddot": 0,
        "tle_line1": "1 36828U 10036A   25354.90794837 -.00000055  00000+0  00000+0 0  9992",
        "tle_line2": "2 36828  54.2882 164.5739 0051798 215.2932 144.6604  1.00282395 56317"
      },
      "geometry": {
        "type": "Point",
        "coordinates": [
          55.54662733679085,
          -52.70721507870145
        ]
      }
    },
    {
      "type": "Feature",
      "properties": {
        "norad_id": 37210,
        "name": "BEIDOU-2 G4 (C04)",
        "group": "beidou",
        "lat": 2.2843946874992365,
        "lon": 114.6684193949857,
        "alt_km": 35823.45998013139,
        "timestamp": "2025-12-23T14:49:09.655774+00:00",
        "meta_object_name": "BEIDOU-2 G4 (C04)",
        "meta_object_id": "2010-057A",
        "meta_epoch": "2025-12-23T05:20:01.162752",
        "meta_mean_motion": 1.00271801,
        "meta_eccentricity": 0.00103967,
        "meta_inclination": 3.2089,
        "meta_ra_of_asc_node": 69.8991,
        "meta_arg_of_pericenter": 193.5513,
        "meta_mean_anomaly": 68.6549,
        "meta_ephemeris_type": 0,
        "meta_classification_type": "U",
        "meta_norad_cat_id": 37210,
        "meta_element_set_no": 999,
        "meta_rev_at_epoch": 5552,
        "meta_bstar": 0,
        "meta_mean_motion_dot": -9.2e-07,
        "meta_mean_motion_ddot": 0,
        "tle_line1": "1 37210U 10057A   25357.22223568 -.00000092  00000+0  00000+0 0  9998",
        "tle_line2": "2 37210   3.2089  69.8991 0010396 193.5513  68.6549  1.00271801 55520"
      },
      "geometry": {
        "type": "Point",
        "coordinates": [
          114.6684193949857,
          2.2843946874992365
        ]
      }
    },
    {
      "type": "Feature",
      "properties": {
        "norad_id": 37256,
        "name": "BEIDOU-2 IGSO-2 (C07)",
        "group": "beidou",
        "lat": 23.055988334058046,
        "lon": 71.4014210795702,
        "alt_km": 35703.16592095059,
        "timestamp": "2025-12-23T14:49:09.655790+00:00",
        "meta_object_name": "BEIDOU-2 IGSO-2 (C07)",
        "meta_object_id": "2010-068A",
        "meta_epoch": "2025-12-22T18:34:33.319200",
        "meta_mean_motion": 1.00283389,
        "meta_eccentricity": 0.00485799,
        "meta_inclination": 47.8675,
        "meta_ra_of_asc_node": 274.0264,
        "meta_arg_of_pericenter": 216.371,
        "meta_mean_anomaly": 347.8143,
        "meta_ephemeris_type": 0,
        "meta_classification_type": "U",
        "meta_norad_cat_id": 37256,
        "meta_element_set_no": 999,
        "meta_rev_at_epoch": 5502,
        "meta_bstar": 0,
        "meta_mean_motion_dot": -1.86e-06,
        "meta_mean_motion_ddot": 0,
        "tle_line1": "1 37256U 10068A   25356.77399675 -.00000186  00000+0  00000+0 0  9996",
        "tle_line2": "2 37256  47.8675 274.0264 0048579 216.3710 347.8143  1.00283389 55026"
      },
      "geometry": {
        "type": "Point",
        "coordinates": [
          71.4014210795702,
          23.055988334058046
        ]
      }
    },
    {
      "type": "Feature",
      "properties": {
        "norad_id": 37384,
        "name": "BEIDOU-2 IGSO-3 (C08)",
        "group": "beidou",
        "lat": 17.583683911284076,
        "lon": 51.48539316666482,
        "alt_km": 35931.12297337391,
        "timestamp": "2025-12-23T14:49:09.655806+00:00",
        "meta_object_name": "BEIDOU-2 IGSO-3 (C08)",
        "meta_object_id": "2011-013A",
        "meta_epoch": "2025-12-22T13:40:14.018880",
        "meta_mean_motion": 1.00268611,
        "meta_eccentricity": 0.00353737,
        "meta_inclination": 62.1558,
        "meta_ra_of_asc_node": 41.8231,
        "meta_arg_of_pericenter": 187.5329,
        "meta_mean_anomaly": 174.3937,
        "meta_ephemeris_type": 0,
        "meta_classification_type": "U",
        "meta_norad_cat_id": 37384,
        "meta_element_set_no": 999,
        "meta_rev_at_epoch": 5389,
        "meta_bstar": 0,
        "meta_mean_motion_dot": -1.6e-06,
        "meta_mean_motion_ddot": 0,
        "tle_line1": "1 37384U 11013A   25356.56960670 -.00000160  00000+0  00000+0 0  9997",
        "tle_line2": "2 37384  62.1558  41.8231 0035373 187.5329 174.3937  1.00268611 53893"
      },
      "geometry": {
        "type": "Point",
        "coordinates": [
          51.48539316666482,
          17.583683911284076
        ]
      }
    },
    {
      "type": "Feature",
      "properties": {
        "norad_id": 37763,
        "name": "BEIDOU-2 IGSO-4 (C09)",
        "group": "beidou",
        "lat": -46.28756023136716,
        "lon": 35.40864425766698,
        "alt_km": 35175.59957445308,
        "timestamp": "2025-12-23T14:49:09.655820+00:00",
        "meta_object_name": "BEIDOU-2 IGSO-4 (C09)",
        "meta_object_id": "2011-038A",
        "meta_epoch": "2025-12-21T10:06:26.864064",
        "meta_mean_motion": 1.00280083,
        "meta_eccentricity": 0.01491557,
        "meta_inclination": 54.5854,
        "meta_ra_of_asc_node": 167.2693,
        "meta_arg_of_pericenter": 230.0944,
        "meta_mean_anomaly": 299.1265,
        "meta_ephemeris_type": 0,
        "meta_classification_type": "U",
        "meta_norad_cat_id": 37763,
        "meta_element_set_no": 999,
        "meta_rev_at_epoch": 5286,
        "meta_bstar": 0,
        "meta_mean_motion_dot": 5.9e-07,
        "meta_mean_motion_ddot": 0,
        "tle_line1": "1 37763U 11038A   25355.42114426  .00000059  00000+0  00000+0 0  9995",
        "tle_line2": "2 37763  54.5854 167.2693 0149155 230.0944 299.1265  1.00280083 52867"
      },
      "geometry": {
        "type": "Point",
        "coordinates": [
          35.40864425766698,
          -46.28756023136716
        ]
      }
    },
    {
      "type": "Feature",
      "properties": {
        "norad_id": 37948,
        "name": "BEIDOU-2 IGSO-5 (C10)",
        "group": "beidou",
        "lat": 32.790460238788015,
        "lon": 58.32654634245395,
        "alt_km": 35763.260791357454,
        "timestamp": "2025-12-23T14:49:09.655833+00:00",
        "meta_object_name": "BEIDOU-2 IGSO-5 (C10)",
        "meta_object_id": "2011-073A",
        "meta_epoch": "2025-12-22T17:56:38.660352",
        "meta_mean_motion": 1.00289046,
        "meta_eccentricity": 0.01097824,
        "meta_inclination": 48.0017,
        "meta_ra_of_asc_node": 273.7363,
        "meta_arg_of_pericenter": 222.2409,
        "meta_mean_anomaly": 318.2771,
        "meta_ephemeris_type": 0,
        "meta_classification_type": "U",
        "meta_norad_cat_id": 37948,
        "meta_element_set_no": 999,
        "meta_rev_at_epoch": 5136,
        "meta_bstar": 0,
        "meta_mean_motion_dot": -1.4e-06,
        "meta_mean_motion_ddot": 0,
        "tle_line1": "1 37948U 11073A   25356.74766968 -.00000140  00000+0  00000+0 0  9991",
        "tle_line2": "2 37948  48.0017 273.7363 0109782 222.2409 318.2771  1.00289046 51366"
      },
      "geometry": {
        "type": "Point",
        "coordinates": [
          58.32654634245395,
          32.790460238788015
        ]
      }
    },
    {
      "type": "Feature",
      "properties": {
        "norad_id": 38091,
        "name": "BEIDOU-2 G5 (C05)",
        "group": "beidou",
        "lat": -2.6324119133518327,
        "lon": 13.614909583457939,
        "alt_km": 35769.02042970978,
        "timestamp": "2025-12-23T14:49:09.655846+00:00",
        "meta_object_name": "BEIDOU-2 G5 (C05)",
        "meta_object_id": "2012-008A",
        "meta_epoch": "2025-12-23T03:08:21.323904",
        "meta_mean_motion": 1.00269239,
        "meta_eccentricity": 0.0013154,
        "meta_inclination": 3.1332,
        "meta_ra_of_asc_node": 70.6743,
        "meta_arg_of_pericenter": 232.0278,
        "meta_mean_anomaly": 255.0578,
        "meta_ephemeris_type": 0,
        "meta_classification_type": "U",
        "meta_norad_cat_id": 38091,
        "meta_element_set_no": 999,
        "meta_rev_at_epoch": 5060,
        "meta_bstar": 0,
        "meta_mean_motion_dot": 7.7e-07,
        "meta_mean_motion_ddot": 0,
        "tle_line1": "1 38091U 12008A   25357.13080236  .00000077  00000+0  00000+0 0  9999",
        "tle_line2": "2 38091   3.1332  70.6743 0013154 232.0278 255.0578  1.00269239 50605"
      },
      "geometry": {
        "type": "Point",
        "coordinates": [
          13.614909583457939,
          -2.6324119133518327
        ]
      }
    }
  ]
}